[{"OBJECT_NAME":"UHETSAT","OBJECT_ID":"2023-185E","EPOCH":"2026-03-09T22:39:26.455680","MEAN_MOTION":15.29797662,"ECCENTRICITY":0.00118435,"INCLINATION":97.3584,"RA_OF_ASC_NODE":137.3576,"ARG_OF_PERICENTER":307.7346,"MEAN_ANOMALY":52.2821,"EPHEMERIS_TYPE":0,"CLASSIFICATION_TYPE":"U","NORAD_CAT_ID":58466,"ELEMENT_SET_NO":999,"REV_AT_EPOCH":12611,"BSTAR":0.00030513019,"MEAN_MOTION_DOT":8.749e-5,"MEAN_MOTION_DDOT":0},{"OBJECT_NAME":"STARLINK-35561","OBJECT_ID":"2025-236V","EPOCH":"2026-03-09T11:50:24.880128","MEAN_MOTION":15.30198348,"ECCENTRICITY":0.00013029,"INCLINATION":53.159,"RA_OF_ASC_NODE":104.845,"ARG_OF_PERICENTER":86.9151,"MEAN_ANOMALY":273.1999,"EPHEMERIS_TYPE":0,"CLASSIFICATION_TYPE":"U","NORAD_CAT_ID":66105,"ELEMENT_SET_NO":999,"REV_AT_EPOCH":2285,"BSTAR":0.00092198659,"MEAN_MOTION_DOT":0.00027045,"MEAN_MOTION_DDOT":0}]
